[{"OBJECT_NAME":"STARLINK-3771","OBJECT_ID":"2022-041AJ","EPOCH":"2026-03-09T11:55:13.582272","MEAN_MOTION":15.08837885,"ECCENTRICITY":0.00011544,"INCLINATION":53.216,"RA_OF_ASC_NODE":99.9971,"ARG_OF_PERICENTER":87.7529,"MEAN_ANOMALY":272.3596,"EPHEMERIS_TYPE":0,"CLASSIFICATION_TYPE":"U","NORAD_CAT_ID":52293,"ELEMENT_SET_NO":999,"REV_AT_EPOCH":21447,"BSTAR":-3.7558442e-5,"MEAN_MOTION_DOT":-8.85e-6,"MEAN_MOTION_DDOT":0},{"OBJECT_NAME":"OBJECT G","OBJECT_ID":"2024-205G","EPOCH":"2026-03-09T23:05:54.449664","MEAN_MOTION":15.09392775,"ECCENTRICITY":0.00211709,"INCLINATION":97.4199,"RA_OF_ASC_NODE":141.9686,"ARG_OF_PERICENTER":130.0324,"MEAN_ANOMALY":230.2768,"EPHEMERIS_TYPE":0,"CLASSIFICATION_TYPE":"U","NORAD_CAT_ID":61900,"ELEMENT_SET_NO":999,"REV_AT_EPOCH":7318,"BSTAR":0.00059967322,"MEAN_MOTION_DOT":9.576e-5,"MEAN_MOTION_DDOT":0}]
